H-2A R/B                
1 28932U 06002B   26168.51594132  .00005813  00000+0  28042-3 0  9990
2 28932  98.2567 324.3741 0049596 261.1521  98.4093 15.18063600109573
RESURS-DK 1             
1 29228U 06021A   26168.49808350  .00001714  00000+0  10235-3 0  9998
2 29228  69.9343 338.7479 0006918 291.5563  68.4865 15.13219728102622
CZ-4B R/B               
1 29507U 06046C   26168.12099975  .00003126  00000+0  15635-3 0  9998
2 29507  97.5450 212.7283 0030994 282.9606  76.8167 15.17783435 75122
CZ-2C R/B               
1 31114U 07010B   26168.05992594  .00000067  00000+0  49609-4 0  9998
2 31114  98.4100 276.4170 0059027   6.4996 353.6934 14.20276159993829
COSMO-SKYMED 1          
1 31598U 07023A   26168.60287095  .00002174  00000+0  19368-3 0  9991
2 31598  97.8848   0.4620 0001323  98.4696 261.6676 14.97100802 29855
COSMOS 2428             
1 31792U 07029A   26168.49766737 -.00000111  00000+0 -33828-4 0  9994
2 31792  70.9369 353.8257 0007132 134.3843 225.7863 14.12928117978193
SL-16 R/B               
1 31793U 07029B   26168.53448314  .00000082  00000+0  67342-4 0  9991
2 31793  70.9769 322.4979 0002330 261.9348 163.4031 14.14855205979491
KORONAS-FOTON           
1 33504U 09003A   26168.46691339  .00008536  00000+0  17544-3 0  9996
2 33504  82.4284 171.9677 0011718 146.5296 213.6696 15.45726740961149
CZ-2C R/B               
1 37731U 11030B   26168.45597789  .00001042  00000+0  13677-3 0  9996
2 37731  97.8655 123.8373 0053042  27.1195  86.0692 14.81472097804869
H-2A R/B                
1 38341U 12025E   26168.55830913  .00002383  00000+0  21626-3 0  9991
2 38341  98.4832 143.7345 0043596 348.1389  11.8799 14.95722640763141
SHIJIAN-16 (SJ-16)      
1 39358U 13057A   26168.64156058  .00000667  00000+0  67481-4 0  9990
2 39358  74.9724 355.8224 0016799 229.8180 130.1538 14.92606550686418
SL-4 R/B                
1 39679U 14021B   26168.38790022  .00009048  00000+0  18913-3 0  9991
2 39679  51.6039 209.7879 0091228 106.7073 254.3949 15.41958454671644
ALOS-2                  
1 39766U 14029A   26168.61260133  .00000901  00000+0  12750-3 0  9999
2 39766  97.9226 265.7699 0001640  89.8466 270.2934 14.79470128651646
YAOGAN-29               
1 41038U 15069A   26168.58261934  .00001055  00000+0  13618-3 0  9990
2 41038  98.0020 197.2163 0002626  54.6902 305.4557 14.83088418570688
ASTRO-H (HITOMI)        
1 41337U 16012A   26168.16641420  .00002045  00000+0  11534-3 0  9992
2 41337  30.9996  74.3210 0009772 253.5454 106.4111 15.10510640567281
HXMT (HUIYAN)           
1 42758U 17034A   26168.52902116  .00002022  00000+0  10687-3 0  9990
2 42758  43.0125 181.1377 0030628 149.3559 210.9086 15.18478619497710
SAOCOM 1A               
1 43641U 18076A   26168.60861280  .00000275  00000+0  41143-4 0  9994
2 43641  97.8875 355.3505 0001549  79.9238 280.2150 14.82148168416166
H-2A R/B                
1 43682U 18084L   26168.58155644  .00016422  00000+0  34497-3 0  9999
2 43682  98.8571  47.5575 0023476  39.2560 321.0381 15.45166757421184
SAOCOM 1B               
1 46265U 20059A   26168.57225406 -.00000126  00000+0 -92978-5 0  9993
2 46265  97.8879 354.4097 0001604  83.2699 276.8697 14.82146041313545
CSS (TIANHE)            
1 48274U 21035A   26168.42493671  .00019059  00000+0  22524-3 0  9996
2 48274  41.4698 320.5549 0007448  79.0954 281.0722 15.60819135293201
COSMOS 2550             
1 48865U 21056A   26168.61094899  .00009111  00000+0  28229-3 0  9991
2 48865  67.1435  98.6243 0008340 268.5708  91.4491 15.33847093278785
CZ-2C R/B               
1 52794U 22058K   26167.28244568  .00030822  00000+0  34419-3 0  9993
2 52794  50.1832 168.2256 0032542 264.2442  95.4821 15.61795532225505
CZ-2C R/B               
1 54039U 22132E   26168.53450225  .00047573  00000+0  36887-3 0  9990
2 54039  97.2897 175.5740 0016079  83.1011 277.2081 15.71527278206001
GSLV R/B                
1 54149U 22138AN  26168.38510685  .00002336  00000+0  19825-3 0  9999
2 54149  87.3807 132.9179 0022907 142.9594 217.3224 14.97258257198845
XRISM                   
1 57800U 23137A   26167.99267058  .00004236  00000+0  23198-3 0  9994
2 57800  31.0033   0.8620 0007957 321.8772  38.1304 15.12465505152838
ACS3                    
1 59588U 24077B   26168.34910856  .00029910  00000+0  22029-1 0  9990
2 59588  97.1682  87.1011 0075880  63.4337 297.4581 13.93997106108061
CZ-8A R/B               
1 66004U 25231K   26167.91228734 -.00000040  00000+0  43962-4 0  9999
2 66004  50.0057  40.4857 0116489 223.0378 136.1383 14.30154851 34900
SZ-21 MODULE            
1 66515U 25246C   26168.53256850  .00038762  00000+0  23828-3 0  9990
2 66515  41.4742 305.1743 0006303 350.6233   9.4493 15.76430582 33796
