OBJECT_NAME,OBJECT_ID,EPOCH,MEAN_MOTION,ECCENTRICITY,INCLINATION,RA_OF_ASC_NODE,ARG_OF_PERICENTER,MEAN_ANOMALY,EPHEMERIS_TYPE,CLASSIFICATION_TYPE,NORAD_CAT_ID,ELEMENT_SET_NO,REV_AT_EPOCH,BSTAR,MEAN_MOTION_DOT,MEAN_MOTION_DDOT
H-2A R/B,2006-002B,2026-06-17T12:22:57.330048,15.18063600,.00495968,98.2567,324.3741,261.1521,98.4093,0,U,28932,999,10957,.28041978E-3,.5813E-4,0
RESURS-DK 1,2006-021A,2026-06-17T11:57:14.414400,15.13219728,.00069184,69.9343,338.7479,291.5563,68.4865,0,U,29228,999,10262,.10234563E-3,.1714E-4,0
CZ-4B R/B,2006-046C,2026-06-17T02:54:14.378400,15.17783435,.00309943,97.5450,212.7283,282.9606,76.8167,0,U,29507,999,7512,.15634641E-3,.3126E-4,0
CZ-2C R/B,2007-010B,2026-06-17T01:26:17.601216,14.20276159,.00590278,98.4100,276.4170,6.4996,353.6934,0,U,31114,999,99382,.49608913E-4,.67E-6,0
COSMO-SKYMED 1,2007-023A,2026-06-17T14:28:08.050080,14.97100802,.00013233,97.8848,0.4620,98.4696,261.6676,0,U,31598,999,2985,.19368049E-3,.2174E-4,0
COSMOS 2428,2007-029A,2026-06-17T11:56:38.460768,14.12928117,.00071321,70.9369,353.8257,134.3843,225.7863,0,U,31792,999,97819,-.33828176E-4,-.111E-5,0
SL-16 R/B,2007-029B,2026-06-17T12:49:39.343296,14.14855205,.00023308,70.9769,322.4979,261.9348,163.4031,0,U,31793,999,97949,.67342264E-4,.82E-6,0
KORONAS-FOTON,2009-003A,2026-06-17T11:12:21.316896,15.45726740,.00117181,82.4284,171.9677,146.5296,213.6696,0,U,33504,999,96114,.17543679E-3,.8536E-4,0
CZ-2C R/B,2011-030B,2026-06-17T10:56:36.489696,14.81472097,.00530423,97.8655,123.8373,27.1195,86.0692,0,U,37731,999,80486,.13677049E-3,.1042E-4,0
H-2A R/B,2012-025E,2026-06-17T13:23:57.908832,14.95722640,.00435961,98.4832,143.7345,348.1389,11.8799,0,U,38341,999,76314,.21625886E-3,.2383E-4,0
SHIJIAN-16 (SJ-16),2013-057A,2026-06-17T15:23:50.834112,14.92606550,.00167994,74.9724,355.8224,229.8180,130.1538,0,U,39358,999,68641,.67480812E-4,.667E-5,0
SL-4 R/B,2014-021B,2026-06-17T09:18:34.579008,15.41958454,.00912281,51.6039,209.7879,106.7073,254.3949,0,U,39679,999,67164,.18913249E-3,.9048E-4,0
ALOS-2,2014-029A,2026-06-17T14:42:08.754912,14.79470128,.00016403,97.9226,265.7699,89.8466,270.2934,0,U,39766,999,65164,.12750113E-3,.901E-5,0
YAOGAN-29,2015-069A,2026-06-17T13:58:58.310976,14.83088418,.00026262,98.0020,197.2163,54.6902,305.4557,0,U,41038,999,57068,.13617596E-3,.1055E-4,0
ASTRO-H (HITOMI),2016-012A,2026-06-17T03:59:38.186880,15.10510640,.00097722,30.9996,74.3210,253.5454,106.4111,0,U,41337,999,56728,.11534482E-3,.2045E-4,0
HXMT (HUIYAN),2017-034A,2026-06-17T12:41:47.428224,15.18478619,.00306289,43.0125,181.1377,149.3559,210.9086,0,U,42758,999,49771,.10687434E-3,.2022E-4,0
SAOCOM 1A,2018-076A,2026-06-17T14:36:24.145920,14.82148168,.00015495,97.8875,355.3505,79.9238,280.2150,0,U,43641,999,41616,.41142905E-4,.275E-5,0
H-2A R/B,2018-084L,2026-06-17T13:57:26.476416,15.45166757,.00234765,98.8571,47.5575,39.2560,321.0381,0,U,43682,999,42118,.34496852E-3,.16422E-3,0
SAOCOM 1B,2020-059A,2026-06-17T13:44:02.750784,14.82146041,.00016041,97.8879,354.4097,83.2699,276.8697,0,U,46265,999,31354,-.9297826E-5,-.126E-5,0
CSS (TIANHE),2021-035A,2026-06-17T10:11:54.531744,15.60819135,.00074482,41.4698,320.5549,79.0954,281.0722,0,U,48274,999,29320,.22523707E-3,.19059E-3,0
COSMOS 2550,2021-056A,2026-06-17T14:39:45.992736,15.33847093,.00083402,67.1435,98.6243,268.5708,91.4491,0,U,48865,999,27878,.28228701E-3,.9111E-4,0
CZ-2C R/B,2022-058K,2026-06-16T06:46:43.306752,15.61795532,.00325428,50.1832,168.2256,264.2442,95.4821,0,U,52794,999,22550,.34419339E-3,.30822E-3,0
CZ-2C R/B,2022-132E,2026-06-17T12:49:40.994400,15.71527278,.00160795,97.2897,175.5740,83.1011,277.2081,0,U,54039,999,20600,.36886534E-3,.47573E-3,0
GSLV R/B,2022-138AN,2026-06-17T09:14:33.231840,14.97258257,.00229073,87.3807,132.9179,142.9594,217.3224,0,U,54149,999,19884,.1982473E-3,.2336E-4,0
XRISM,2023-137A,2026-06-16T23:49:26.738112,15.12465505,.00079577,31.0033,0.8620,321.8772,38.1304,0,U,57800,999,15283,.23197746E-3,.4236E-4,0
ACS3,2024-077B,2026-06-17T08:22:42.979584,13.93997106,.00758805,97.1682,87.1011,63.4337,297.4581,0,U,59588,999,10806,.22029036E-1,.2991E-3,0
CZ-8A R/B,2025-231K,2026-06-16T21:53:41.626176,14.30154851,.01164891,50.0057,40.4857,223.0378,136.1383,0,U,66004,999,3490,.43961998E-4,-.4E-6,0
SZ-21 MODULE,2025-246C,2026-06-17T12:46:53.918400,15.76430582,.0006303,41.4742,305.1743,350.6233,9.4493,0,U,66515,999,3379,.2382755E-3,.38762E-3,0
